{"fetched_at":"2026-07-14T17:40:41.780Z","source":"https://celestrak.org/NORAD/elements/gp.php?NAME=FIREFLY&FORMAT=JSON","constellation":"pixxel","records":[{"OBJECT_NAME":"FIREFLY-1","OBJECT_ID":"2025-009CW","EPOCH":"2026-07-14T04:11:32.119584","CLASSIFICATION_TYPE":"U","MEAN_MOTION":14.92739996,"ECCENTRICITY":0.0002532,"INCLINATION":97.7062,"RA_OF_ASC_NODE":272.7448,"ARG_OF_PERICENTER":228.0987,"MEAN_ANOMALY":132.0017,"EPHEMERIS_TYPE":0,"NORAD_CAT_ID":62701,"ELEMENT_SET_NO":999,"REV_AT_EPOCH":8134,"BSTAR":0.000078001,"MEAN_MOTION_DOT":0.0000075,"MEAN_MOTION_DDOT":0},{"OBJECT_NAME":"FIREFLY-2","OBJECT_ID":"2025-009CZ","EPOCH":"2026-07-14T03:39:42.886080","CLASSIFICATION_TYPE":"U","MEAN_MOTION":14.92734057,"ECCENTRICITY":0.000648,"INCLINATION":97.7019,"RA_OF_ASC_NODE":272.4935,"ARG_OF_PERICENTER":6.5811,"MEAN_ANOMALY":353.5492,"EPHEMERIS_TYPE":0,"NORAD_CAT_ID":62704,"ELEMENT_SET_NO":999,"REV_AT_EPOCH":8134,"BSTAR":0.000075983,"MEAN_MOTION_DOT":0.00000729,"MEAN_MOTION_DDOT":0},{"OBJECT_NAME":"FIREFLY-3","OBJECT_ID":"2025-009DF","EPOCH":"2026-07-14T04:44:47.137056","CLASSIFICATION_TYPE":"U","MEAN_MOTION":14.92799047,"ECCENTRICITY":0.0004787,"INCLINATION":97.7052,"RA_OF_ASC_NODE":272.7972,"ARG_OF_PERICENTER":75.5149,"MEAN_ANOMALY":284.6601,"EPHEMERIS_TYPE":0,"NORAD_CAT_ID":62710,"ELEMENT_SET_NO":999,"REV_AT_EPOCH":8136,"BSTAR":0.000040239,"MEAN_MOTION_DOT":0.00000361,"MEAN_MOTION_DDOT":0}]}
