FIREFLY-1               
1 62701U 25009CW  26195.17467731  .00000750  00000+0  78001-4 0  9992
2 62701  97.7062 272.7448 0002532 228.0987 132.0017 14.92739996 81340
FIREFLY-2               
1 62704U 25009CZ  26195.15257970  .00000729  00000+0  75983-4 0  9997
2 62704  97.7019 272.4935 0006480   6.5811 353.5492 14.92734057 81344
FIREFLY-3               
1 62710U 25009DF  26195.19776779  .00000361  00000+0  40239-4 0  9999
2 62710  97.7052 272.7972 0004787  75.5149 284.6601 14.92799047 81368
